{
  "generated_at": "2026-07-07T09:40:24+00:00",
  "source": "celestrak.org",
  "satellite_count": 9,
  "satellites": [
    {
      "id": "terra",
      "name": "TERRA",
      "platform": "EOS",
      "sensor": "MODIS",
      "swath_km": 2330,
      "color": "#39d0d8",
      "norad": 25994,
      "tle1": "1 25994U 99068A   26188.15577171  .00000321  00000+0  74228-4 0  9992",
      "tle2": "2 25994  97.9444 236.9092 0003025 138.8672 306.0844 14.61119280412526"
    },
    {
      "id": "aqua",
      "name": "AQUA",
      "platform": "EOS",
      "sensor": "MODIS",
      "swath_km": 2330,
      "color": "#2bb673",
      "norad": 27424,
      "tle1": "1 27424U 02022A   26188.17848602  .00000693  00000+0  14750-3 0  9993",
      "tle2": "2 27424  98.4289 157.8622 0000724  96.7867 352.6333 14.62188941286193"
    },
    {
      "id": "snpp",
      "name": "SUOMI NPP",
      "platform": "JPSS",
      "sensor": "VIIRS",
      "swath_km": 3000,
      "color": "#ff8c42",
      "norad": 37849,
      "tle1": "1 37849U 11061A   26188.14710122  .00000057  00000+0  48097-4 0  9996",
      "tle2": "2 37849  98.7955 128.8871 0000563 275.4253  84.6858 14.19521452761279"
    },
    {
      "id": "noaa20",
      "name": "NOAA 20",
      "platform": "JPSS",
      "sensor": "VIIRS",
      "swath_km": 3000,
      "color": "#ffaa00",
      "norad": 43013,
      "tle1": "1 43013U 17073A   26188.16041444  .00000051  00000+0  45301-4 0  9990",
      "tle2": "2 43013  98.7773 127.4458 0001083 130.6340 229.4930 14.19515398447307"
    },
    {
      "id": "noaa21",
      "name": "NOAA 21",
      "platform": "JPSS",
      "sensor": "VIIRS",
      "swath_km": 3000,
      "color": "#ff5a3a",
      "norad": 54234,
      "tle1": "1 54234U 22150A   26188.12235661  .00000040  00000+0  39725-4 0  9992",
      "tle2": "2 54234  98.7060 126.5767 0002622 118.8091 241.3349 14.19540142189379"
    },
    {
      "id": "sentinel2a",
      "name": "SENTINEL-2A",
      "platform": "Copernicus",
      "sensor": "MSI",
      "swath_km": 290,
      "color": "#b388ff",
      "norad": 40697,
      "tle1": "1 40697U 15028A   26188.14475395 -.00000064  00000+0 -77420-5 0  9991",
      "tle2": "2 40697  98.5674 262.7128 0001223  96.5318 263.6005 14.30820905576580"
    },
    {
      "id": "sentinel2b",
      "name": "SENTINEL-2B",
      "platform": "Copernicus",
      "sensor": "MSI",
      "swath_km": 290,
      "color": "#9d6dff",
      "norad": 42063,
      "tle1": "1 42063U 17013A   26188.20749049 -.00000116  00000+0 -27602-4 0  9997",
      "tle2": "2 42063  98.5681 262.6992 0001177  90.5457 269.5861 14.30813168487502"
    },
    {
      "id": "sentinel3a",
      "name": "SENTINEL-3A",
      "platform": "Copernicus",
      "sensor": "OLCI",
      "swath_km": 1270,
      "color": "#7a4fff",
      "norad": 41335,
      "tle1": "1 41335U 16011A   26188.13345355  .00000075  00000+0  49159-4 0  9992",
      "tle2": "2 41335  98.6240 255.2298 0001411  92.6602 267.4740 14.26738227540902"
    },
    {
      "id": "sentinel3b",
      "name": "SENTINEL-3B",
      "platform": "Copernicus",
      "sensor": "OLCI",
      "swath_km": 1270,
      "color": "#5e3bff",
      "norad": 43437,
      "tle1": "1 43437U 18039A   26188.17671325  .00000082  00000+0  51893-4 0  9998",
      "tle2": "2 43437  98.6239 255.4214 0000963 118.9874 241.1403 14.26740486426974"
    }
  ]
}